STARLINK-36404          
1 67664U 26022S   26061.65522040  .00039112  00000+0  26170-3 0  9994
2 67664  97.2830  95.3150 0001611  72.1660 287.9781 15.75206621  4443
STARLINK-36399          
1 67665U 26022T   26061.65453313  .00210482  00000+0  13752-2 0  9993
2 67665  97.2833  95.3161 0001545  96.1983 263.9458 15.75229490  4443
STARLINK-36365          
1 67666U 26022U   26061.65312397  .00148742  00000+0  97966-3 0  9999
2 67666  97.2833  95.3181 0001869  86.6035 273.5444 15.75216926  4449
STARLINK-36622          
1 67667U 26022V   26061.65136350  .00157629  00000+0  10383-2 0  9994
2 67667  97.2834  95.3209 0002364  75.3688 284.7839 15.75189059  4440
STARLINK-36625          
1 67668U 26022W   26061.64994997  .00103955  00000+0  68929-3 0  9996
2 67668  97.2842  95.3231 0002003  87.5303 272.6192 15.75191862  4447
STARLINK-36639          
1 67669U 26022X   26061.64817936  .00195875  00000+0  12814-2 0  9997
2 67669  97.2837  95.3241 0000976  96.1618 263.9759 15.75240464  4440
STARLINK-36596          
1 67670U 26022Y   26061.58289365  .00258417  00000+0  16746-2 0  9991
2 67670  97.2831  95.2608 0001518  78.8753 281.2683 15.75285711  4434
STARLINK-36297          
1 67671U 26022Z   26061.64430185  .00215793  00000+0  14107-2 0  9996
2 67671  97.2841  95.3297 0001604  82.8255 277.3193 15.75201009  4440
STARLINK-36616          
1 67672U 26022AA  26061.64570804  .00337896  00000+0  21772-2 0  9995
2 67672  97.2849  95.3279 0000753 139.7129 220.4192 15.75196006  4443
COSMOS 2600             
1 67674U 26023A   26059.29522708  .00071571  00000+0  32746-3 0  9995
2 67674  96.6452 135.2352 0003248  47.0444 313.1099 15.83528492  3562
2026-023B               
1 67675U 26023B   26061.36101917  .00012638  00000+0  54032-3 0  9993
2 67675  96.6376 135.1582 0019037 156.9230 203.2868 15.22784330  3749
2026-023C               
1 67676U 26023C   26061.95120339  .00014989  00000+0  63748-3 0  9993
2 67676  96.6408 135.7023 0020155 145.3411 214.9146 15.22906591  3998
2026-023D               
1 67677U 26023D   26061.95350953  .00013792  00000+0  59000-3 0  9998
2 67677  96.6439 135.6903 0020369 150.1838 210.0566 15.22723469  3829
2026-023E               
1 67678U 26023E   26061.95163113  .00015770  00000+0  67093-3 0  9998
2 67678  96.6331 135.6730 0020149 149.6589 210.5821 15.22884758  3829
2026-023F               
1 67679U 26023F   26061.94928117  .00015722  00000+0  66517-3 0  9998
2 67679  96.6340 138.1726 0022024 144.5012 215.7697 15.23037296  3817
2026-023G               
1 67680U 26023G   26061.94994328  .00016488  00000+0  69754-3 0  9993
2 67680  96.6267 138.1564 0023579 141.0820 219.2122 15.22997771  3816
